NORAD_CAT_ID,OBJECT_NAME,OBJECT_TYPE,EPOCH,MEAN_MOTION,ECCENTRICITY,INCLINATION,RA_OF_ASC_NODE,ARG_OF_PERICENTER,MEAN_ANOMALY,BSTAR,MEAN_MOTION_DOT,MEAN_MOTION_DDOT,TLE_LINE0,TLE_LINE1,TLE_LINE2,SEMIMAJOR_AXIS,PERIOD,APOGEE,PERIGEE,DECAYED
53293.0,STARLINK-4148,PAYLOAD,2024-01-17 10:57:38,15.08837748,0.0001543,53.2175,85.6939,102.2879,257.8286,8.1541e-05,1.01e-05,0.0,0 STARLINK-4148,1 53293U 22086BD  24017.45669855  .00001010  00000-0  81541-4 0  9997,2 53293  53.2175  85.6939 0001543 102.2879 257.8286 15.08837748 83076,6917.887,95.438,540.82,538.685,0.0
53293.0,STARLINK-4148,PAYLOAD,2024-01-18 10:48:24,15.08865506,0.0001797,53.218,81.2353,100.985,259.1345,-0.00027699,-4.697e-05,0.0,0 STARLINK-4148,1 53293U 22086BD  24018.45028853 -.00004697  00000-0 -27699-3 0  9994,2 53293  53.2180  81.2353 0001797 100.9850 259.1345 15.08865506 83220,6917.802,95.436,540.911,538.424,0.0
53293.0,STARLINK-4148,PAYLOAD,2024-01-18 23:31:30,15.08832215,0.0001791,53.2186,78.8579,107.9394,252.1794,0.00022052,3.223e-05,0.0,0 STARLINK-4148,1 53293U 22086BD  24018.98021855  .00003223  00000-0  22052-3 0  9997,2 53293  53.2186  78.8579 0001791 107.9394 252.1794 15.08832215 83303,6917.904,95.438,541.008,538.53,0.0
53293.0,STARLINK-4148,PAYLOAD,2024-01-19 13:49:59,15.08839502,0.0001943,53.2163,76.1739,120.515,239.6034,6.1344e-05,6.88e-06,0.0,0 STARLINK-4148,1 53293U 22086BD  24019.57637886  .00000688  00000-0  61344-4 0  9990,2 53293  53.2163  76.1739 0001943 120.5150 239.6034 15.08839502 83557,6917.882,95.438,541.091,538.403,0.0
53293.0,STARLINK-4148,PAYLOAD,2024-01-20 04:08:28,15.08831431,0.0001649,53.2172,73.5015,103.3391,256.7785,3.6269e-05,2.89e-06,0.0,0 STARLINK-4148,1 53293U 22086BD  24020.17254793  .00000289  00000-0  36269-4 0  9995,2 53293  53.2172  73.5015 0001649 103.3391 256.7785 15.08831431 83482,6917.907,95.438,540.912,538.631,0.0
53293.0,STARLINK-4148,PAYLOAD,2024-01-20 12:05:23,15.08842985,0.000168,53.2174,72.0155,97.8691,262.2491,0.00010149,1.328e-05,0.0,0 STARLINK-4148,1 53293U 22086BD  24020.50374127  .00001328  00000-0  10149-3 0  9999,2 53293  53.2174  72.0155 0001680  97.8691 262.2491 15.08842985 83693,6917.871,95.437,540.898,538.574,0.0
53293.0,STARLINK-4148,PAYLOAD,2024-01-21 11:56:10,15.08846856,0.0001923,53.2202,67.5553,104.3325,255.7881,9.0535e-05,1.153e-05,0.0,0 STARLINK-4148,1 53293U 22086BD  24021.49734230  .00001153  00000-0  90535-4 0  9997,2 53293  53.2202  67.5553 0001923 104.3325 255.7881 15.08846856 83842,6917.859,95.437,541.055,538.394,0.0
53293.0,STARLINK-4148,PAYLOAD,2024-01-22 07:00:48,15.08836478,0.0001296,53.2209,63.9847,63.0214,297.091,0.00012955,1.774e-05,0.0,0 STARLINK-4148,1 53293U 22086BD  24022.29223005  .00001774  00000-0  12955-3 0  9997,2 53293  53.2209  63.9847 0001296  63.0214 297.0910 15.08836478 83960,6917.891,95.438,540.653,538.86,0.0
53293.0,STARLINK-4148,PAYLOAD,2024-01-22 11:46:57,15.08843453,0.0001645,53.2183,63.0923,87.2919,272.8262,0.00010357,1.361e-05,0.0,0 STARLINK-4148,1 53293U 22086BD  24022.49094587  .00001361  00000-0  10357-3 0  9996,2 53293  53.2183  63.0923 0001645  87.2919 272.8262 15.08843453 83833,6917.87,95.437,540.873,538.597,0.0
53293.0,STARLINK-4148,PAYLOAD,2024-01-23 06:51:35,15.08843916,0.0001857,53.2183,59.5238,73.6103,286.5094,6.7855e-05,7.92e-06,0.0,0 STARLINK-4148,1 53293U 22086BD  24023.28582881  .00000792  00000-0  67855-4 0  9996,2 53293  53.2183  59.5238 0001857  73.6103 286.5094 15.08843916 84112,6917.868,95.437,541.018,538.449,0.0
53293.0,STARLINK-4148,PAYLOAD,2024-01-23 10:02:21,15.08847274,0.0001922,53.2185,58.9309,70.5983,289.5217,0.00010056,1.313e-05,0.0,0 STARLINK-4148,1 53293U 22086BD  24023.41830630  .00001313  00000-0  10056-3 0  9999,2 53293  53.2185  58.9309 0001922  70.5983 289.5217 15.08847274 84134,6917.858,95.437,541.053,538.394,0.0
53293.0,STARLINK-4148,PAYLOAD,2024-01-24 08:17:46,15.08840533,0.000189,53.2192,54.7657,73.9113,286.2088,4.0924e-05,3.63e-06,0.0,0 STARLINK-4148,1 53293U 22086BD  24024.34567308  .00000363  00000-0  40924-4 0  9993,2 53293  53.2192  54.7657 0001890  73.9113 286.2088 15.08840533 84117,6917.879,95.438,541.051,538.436,0.0
53293.0,STARLINK-4148,PAYLOAD,2024-01-25 08:08:32,15.0885312,0.0001847,53.219,50.3028,72.8709,287.2486,9.3259e-05,1.197e-05,0.0,0 STARLINK-4148,1 53293U 22086BD  24025.33926406  .00001197  00000-0  93259-4 0  9996,2 53293  53.2190  50.3028 0001847  72.8709 287.2486 15.08853120 84265,6917.84,95.437,540.983,538.428,0.0
53293.0,STARLINK-4148,PAYLOAD,2024-01-26 07:59:19,15.08843476,0.0001757,53.219,45.8447,102.3964,257.7224,7.3884e-05,8.88e-06,0.0,0 STARLINK-4148,1 53293U 22086BD  24026.33286868  .00000888  00000-0  73884-4 0  9996,2 53293  53.2190  45.8447 0001757 102.3964 257.7224 15.08843476 84413,6917.87,95.437,540.95,538.519,0.0
53293.0,STARLINK-4148,PAYLOAD,2024-01-27 07:50:06,15.08846581,0.0001853,53.2193,41.3862,108.0293,252.0901,2.8631e-05,1.68e-06,0.0,0 STARLINK-4148,1 53293U 22086BD  24027.32646750  .00000168  00000-0  28631-4 0  9997,2 53293  53.2193  41.3862 0001853 108.0293 252.0901 15.08846581 84727,6917.86,95.437,541.007,538.443,0.0
53293.0,STARLINK-4148,PAYLOAD,2024-01-28 04:30:08,15.08837085,0.0001613,53.2178,37.5164,104.2901,255.827,-3.8851e-06,-3.5e-06,0.0,0 STARLINK-4148,1 53293U 22086BD  24028.18759557 -.00000350  00000-0 -38851-5 0  9993,2 53293  53.2178  37.5164 0001613 104.2901 255.8270 15.08837085 84695,6917.889,95.438,540.87,538.638,0.0
53293.0,STARLINK-4148,PAYLOAD,2024-01-28 10:51:40,15.08838695,0.000186,53.2187,36.3273,117.8226,242.2955,-2.9719e-05,-7.61e-06,0.0,0 STARLINK-4148,1 53293U 22086BD  24028.45255607 -.00000761  00000-0 -29719-4 0  9998,2 53293  53.2187  36.3273 0001860 117.8226 242.2955 15.08838695 84897,6917.884,95.438,541.036,538.463,0.0
53293.0,STARLINK-4148,PAYLOAD,2024-01-29 01:10:09,15.08747043,0.0002225,53.2186,33.6514,101.1389,258.9853,0.0012686,0.00019908,0.0,0 STARLINK-4148,1 53293U 22086BD  24029.04872663  .00019908  00000-0  12686-2 0  9995,2 53293  53.2186  33.6514 0002225 101.1389 258.9853 15.08747043 84826,6918.165,95.443,541.569,538.49,0.0
53293.0,STARLINK-4148,PAYLOAD,2024-01-29 07:31:42,15.08809575,0.0001817,53.2183,32.4616,101.8241,258.2955,0.00056806,8.757e-05,0.0,0 STARLINK-4148,1 53293U 22086BD  24029.31368188  .00008757  00000-0  56806-3 0  9990,2 53293  53.2183  32.4616 0001817 101.8241 258.2955 15.08809575 84862,6917.973,95.439,541.095,538.581,0.0
53293.0,STARLINK-4148,PAYLOAD,2024-01-30 04:11:42,15.08840192,0.0001709,53.2186,28.5959,99.7246,260.3939,0.00012536,1.708e-05,0.0,0 STARLINK-4148,1 53293U 22086BD  24030.17479610  .00001708  00000-0  12536-3 0  9990,2 53293  53.2186  28.5959 0001709  99.7246 260.3939 15.08840192 84991,6917.88,95.438,540.927,538.563,0.0
53293.0,STARLINK-4148,PAYLOAD,2024-01-30 08:57:51,15.08846401,0.0001677,53.2185,27.7037,97.433,262.6853,0.00017694,2.53e-05,0.0,0 STARLINK-4148,1 53293U 22086BD  24030.37351165  .00002530  00000-0  17694-3 0  9990,2 53293  53.2185  27.7037 0001677  97.4330 262.6853 15.08846401 85182,6917.861,95.437,540.886,538.566,0.0
53293.0,STARLINK-4148,PAYLOAD,2024-01-31 04:02:29,15.08837044,0.0001924,53.2199,24.1288,83.4691,276.652,2.4702e-05,1.05e-06,0.0,0 STARLINK-4148,1 53293U 22086BD  24031.16840254  .00000105  00000-0  24702-4 0  9995,2 53293  53.2199  24.1288 0001924  83.4691 276.6520 15.08837044 85141,6917.889,95.438,541.085,538.423,0.0
53293.0,STARLINK-4148,PAYLOAD,2024-01-31 07:13:15,15.08842072,0.0001781,53.2191,23.537,80.4736,279.6457,3.2735e-05,2.33e-06,0.0,0 STARLINK-4148,1 53293U 22086BD  24031.30087918  .00000233  00000-0  32735-4 0  9998,2 53293  53.2191  23.5370 0001781  80.4736 279.6457 15.08842072 85325,6917.874,95.437,540.971,538.507,0.0
53293.0,STARLINK-4148,PAYLOAD,2024-01-31 23:07:07,15.0884615,0.0001666,53.2186,20.5709,88.9586,271.1597,1.9589e-05,2.4e-07,0.0,0 STARLINK-4148,1 53293U 22086BD  24031.96327704  .00000024  00000-0  19589-4 0  9990,2 53293  53.2186  20.5709 0001666  88.9586 271.1597 15.08846150 85424,6917.862,95.437,540.879,538.574,0.0
53293.0,STARLINK-4148,PAYLOAD,2024-02-01 03:53:16,15.08846281,0.0001723,53.2182,19.675,118.1861,241.9305,1.1253e-05,-1.09e-06,0.0,0 STARLINK-4148,1 53293U 22086BD  24032.16199456 -.00000109  00000-0  11253-4 0  9999,2 53293  53.2182  19.6750 0001723 118.1861 241.9305 15.08846281 85293,6917.861,95.437,540.918,538.534,0.0
53293.0,STARLINK-4148,PAYLOAD,2024-02-01 05:28:39,15.08845094,0.0001641,53.2186,19.3805,89.382,270.736,9.6596e-06,-1.34e-06,0.0,0 STARLINK-4148,1 53293U 22086BD  24032.22823719 -.00000134  00000-0  96596-5 0  9994,2 53293  53.2186  19.3805 0001641  89.3820 270.7360 15.08845094 85469,6917.865,95.437,540.865,538.595,0.0
53293.0,STARLINK-4148,PAYLOAD,2024-02-01 22:57:54,15.08840722,0.0001692,53.2186,16.1102,84.3591,275.7594,5.1281e-05,5.28e-06,0.0,0 STARLINK-4148,1 53293U 22086BD  24032.95687967  .00000528  00000-0  51281-4 0  9994,2 53293  53.2186  16.1102 0001692  84.3591 275.7594 15.08840722 85579,6917.878,95.438,540.914,538.573,0.0
53293.0,STARLINK-4148,PAYLOAD,2024-02-02 03:44:03,15.08840088,0.0001613,53.2185,15.2171,91.1403,268.9774,3.9693e-05,3.44e-06,0.0,0 STARLINK-4148,1 53293U 22086BD  24033.15559962  .00000344  00000-0  39693-4 0  9999,2 53293  53.2185  15.2171 0001613  91.1403 268.9774 15.08840088 85440,6917.88,95.438,540.861,538.629,0.0
53293.0,STARLINK-4148,PAYLOAD,2024-02-02 08:30:12,15.0884358,0.000158,53.2179,14.3231,95.3111,264.8062,6.6663e-05,7.73e-06,0.0,0 STARLINK-4148,1 53293U 22086BD  24033.35431582  .00000773  00000-0  66663-4 0  9991,2 53293  53.2179  14.3231 0001580  95.3111 264.8062 15.08843580 85631,6917.869,95.437,540.827,538.641,0.0
53293.0,STARLINK-4148,PAYLOAD,2024-02-02 18:02:32,15.08838319,0.0001492,53.2172,12.5386,95.7357,264.3805,6.2294e-05,7.04e-06,0.0,0 STARLINK-4148,1 53293U 22086BD  24033.75175930  .00000704  00000-0  62294-4 0  9997,2 53293  53.2172  12.5386 0001492  95.7357 264.3805 15.08838319 85693,6917.886,95.438,540.783,538.718,0.0
